{
  "type": "FeatureCollection",
  "features": [
    {
      "type": "Feature",
      "properties": {
        "city": "montilla"
      },
      "geometry": {
        "type": "Polygon",
        "coordinates": [
          [
            [
              -4.635261,
              37.607352
            ],
            [
              -4.618361,
              37.601313
            ],
            [
              -4.620552,
              37.579971
            ],
            [
              -4.630268,
              37.570785
            ],
            [
              -4.641378,
              37.562551
            ],
            [
              -4.646592,
              37.549397
            ],
            [
              -4.656123,
              37.550855
            ],
            [
              -4.661474,
              37.554906
            ],
            [
              -4.665915,
              37.574015
            ],
            [
              -4.662554,
              37.587503
            ],
            [
              -4.665173,
              37.594834
            ],
            [
              -4.635261,
              37.607352
            ]
          ]
        ]
      }
    }
  ]
}
