{
  "type": "FeatureCollection",
  "features": [
    {
      "type": "Feature",
      "properties": {
        "city": "montalban"
      },
      "geometry": {
        "type": "Polygon",
        "coordinates": [
          [
            [
              -4.754379,
              37.589995
            ],
            [
              -4.742928,
              37.589995
            ],
            [
              -4.742928,
              37.57256
            ],
            [
              -4.754379,
              37.57256
            ],
            [
              -4.754379,
              37.589995
            ]
          ]
        ]
      }
    }
  ]
}
