{
  "type": "FeatureCollection",
  "features": [
    {
      "type": "Feature",
      "properties": {
        "city": "cordoba"
      },
      "geometry": {
        "type": "Polygon",
        "coordinates": [
          [
            [
              -4.804411,
              37.939537
            ],
            [
              -4.81746,
              37.930708
            ],
            [
              -4.822838,
              37.92266
            ],
            [
              -4.83791,
              37.902274
            ],
            [
              -4.820633,
              37.870631
            ],
            [
              -4.81269,
              37.855589
            ],
            [
              -4.80186,
              37.842667
            ],
            [
              -4.789719,
              37.842311
            ],
            [
              -4.776953,
              37.854168
            ],
            [
              -4.764233,
              37.866079
            ],
            [
              -4.76027,
              37.864653
            ],
            [
              -4.754149,
              37.865009
            ],
            [
              -4.74863,
              37.866435
            ],
            [
              -4.745319,
              37.868534
            ],
            [
              -4.743061,
              37.87095
            ],
            [
              -4.741255,
              37.874237
            ],
            [
              -4.739449,
              37.878316
            ],
            [
              -4.739399,
              37.879939
            ],
            [
              -4.737944,
              37.883266
            ],
            [
              -4.735085,
              37.890037
            ],
            [
              -4.74287,
              37.900851
            ],
            [
              -4.754243,
              37.911339
            ],
            [
              -4.766584,
              37.907508
            ],
            [
              -4.771604,
              37.913736
            ],
            [
              -4.777177,
              37.918932
            ],
            [
              -4.781737,
              37.923228
            ],
            [
              -4.786677,
              37.927224
            ],
            [
              -4.795289,
              37.933718
            ],
            [
              -4.804411,
              37.939537
            ]
          ]
        ]
      }
    }
  ]
}
